SL-3 R/B                
1 13403U 82079B   25335.31835233  .00006667  00000+0  27653-3 0  9993
2 13403  81.1459 309.1232 0026556 135.8299 224.5061 15.23386649362718
SL-14 R/B               
1 13553U 82092B   25335.24842377  .00000647  00000+0  70126-4 0  9999
2 13553  82.5689 233.4576 0018819 268.0952 211.2317 14.86536518314301
SL-3 R/B                
1 13819U 83010B   25335.16569254  .00016682  00000+0  37556-3 0  9991
2 13819  81.1023 122.7409 0017717  31.2578 328.9714 15.42992364342731
SL-3 R/B                
1 14208U 83075B   25335.19092169  .00012538  00000+0  35976-3 0  9994
2 14208  97.6103 331.2904 0021522 217.9291 142.0437 15.35782729315029
COSMOS 1536             
1 14699U 84013A   25335.10693914  .00006502  00000+0  28011-3 0  9993
2 14699  82.5470 205.6982 0013251 271.2914  88.6804 15.22326778257615
SL-14 R/B               
1 14820U 84027B   25335.10728767  .00000621  00000+0  68484-4 0  9994
2 14820  82.5409 337.4663 0016624 302.9276  57.0341 14.85854022232999
SL-8 R/B                
1 15483U 85006B   25335.26233446  .00000350  00000+0  12484-3 0  9997
2 15483  74.0462  82.2503 0018186  17.6414   2.8524 14.37710069139881
SL-12 R/B(2)            
1 15772U 85042D   25335.21560330  .00000124  00000+0  77318-4 0  9995
2 15772  71.1080 295.7658 0037673 278.3386 176.8240 14.21945924100398
SL-14 R/B               
1 15945U 85069B   25335.12203184  .00000688  00000+0  75141-4 0  9994
2 15945  82.5254 117.6244 0019414 155.0300 205.1861 14.86300900158198
SL-16 R/B               
1 16182U 85097B   25335.27298997 -.00000183  00000+0 -67940-4 0  9991
2 16182  71.0035 347.7449 0005988  29.3011  49.6261 14.16582082 73296
SL-14 R/B               
1 16496U 86006B   25335.32504372  .00000876  00000+0  90982-4 0  9992
2 16496  82.5269 352.2926 0075406 238.1530 121.2332 14.86646867134595
COSMOS 1743             
1 16719U 86034A   25335.30460022  .00026702  00000+0  45394-3 0  9994
2 16719  82.5351 176.4612 0004984 304.3177  55.7602 15.51278109164967
