CCSDS_OMM_VERS = 2.0
CREATION_DATE  = 
ORIGINATOR     = 

OBJECT_NAME    = SL-3 R/B
OBJECT_ID      = 1982-079B
CENTER_NAME    = EARTH
REF_FRAME      = TEME
TIME_SYSTEM    = UTC
MEAN_ELEMENT_THEORY = SGP/SGP4

EPOCH          = 2025-12-01T07:38:25.641312
MEAN_MOTION    = 15.23386649
ECCENTRICITY   = .00265568
INCLINATION    = 81.1459
RA_OF_ASC_NODE = 309.1232
ARG_OF_PERICENTER = 135.8299
MEAN_ANOMALY   = 224.5061

EPHEMERIS_TYPE = 0
CLASSIFICATION_TYPE = U
NORAD_CAT_ID   = 13403
ELEMENT_SET_NO = 999
REV_AT_EPOCH   = 36271
BSTAR          = .27653149E-3
MEAN_MOTION_DOT = .6667E-4
MEAN_MOTION_DDOT = 0

CCSDS_OMM_VERS = 2.0
CREATION_DATE  = 
ORIGINATOR     = 

OBJECT_NAME    = SL-14 R/B
OBJECT_ID      = 1982-092B
CENTER_NAME    = EARTH
REF_FRAME      = TEME
TIME_SYSTEM    = UTC
MEAN_ELEMENT_THEORY = SGP/SGP4

EPOCH          = 2025-12-01T05:57:43.813728
MEAN_MOTION    = 14.86536518
ECCENTRICITY   = .00188192
INCLINATION    = 82.5689
RA_OF_ASC_NODE = 233.4576
ARG_OF_PERICENTER = 268.0952
MEAN_ANOMALY   = 211.2317

EPHEMERIS_TYPE = 0
CLASSIFICATION_TYPE = U
NORAD_CAT_ID   = 13553
ELEMENT_SET_NO = 999
REV_AT_EPOCH   = 31430
BSTAR          = .70125544E-4
MEAN_MOTION_DOT = .647E-5
MEAN_MOTION_DDOT = 0

CCSDS_OMM_VERS = 2.0
CREATION_DATE  = 
ORIGINATOR     = 

OBJECT_NAME    = SL-3 R/B
OBJECT_ID      = 1983-010B
CENTER_NAME    = EARTH
REF_FRAME      = TEME
TIME_SYSTEM    = UTC
MEAN_ELEMENT_THEORY = SGP/SGP4

EPOCH          = 2025-12-01T03:58:35.835456
MEAN_MOTION    = 15.42992364
ECCENTRICITY   = .00177179
INCLINATION    = 81.1023
RA_OF_ASC_NODE = 122.7409
ARG_OF_PERICENTER = 31.2578
MEAN_ANOMALY   = 328.9714

EPHEMERIS_TYPE = 0
CLASSIFICATION_TYPE = U
NORAD_CAT_ID   = 13819
ELEMENT_SET_NO = 999
REV_AT_EPOCH   = 34273
BSTAR          = .37556352E-3
MEAN_MOTION_DOT = .16682E-3
MEAN_MOTION_DDOT = 0

CCSDS_OMM_VERS = 2.0
CREATION_DATE  = 
ORIGINATOR     = 

OBJECT_NAME    = SL-3 R/B
OBJECT_ID      = 1983-075B
CENTER_NAME    = EARTH
REF_FRAME      = TEME
TIME_SYSTEM    = UTC
MEAN_ELEMENT_THEORY = SGP/SGP4

EPOCH          = 2025-12-01T04:34:55.634016
MEAN_MOTION    = 15.35782729
ECCENTRICITY   = .00215228
INCLINATION    = 97.6103
RA_OF_ASC_NODE = 331.2904
ARG_OF_PERICENTER = 217.9291
MEAN_ANOMALY   = 142.0437

EPHEMERIS_TYPE = 0
CLASSIFICATION_TYPE = U
NORAD_CAT_ID   = 14208
ELEMENT_SET_NO = 999
REV_AT_EPOCH   = 31502
BSTAR          = .35975892E-3
MEAN_MOTION_DOT = .12538E-3
MEAN_MOTION_DDOT = 0

CCSDS_OMM_VERS = 2.0
CREATION_DATE  = 
ORIGINATOR     = 

OBJECT_NAME    = COSMOS 1536
OBJECT_ID      = 1984-013A
CENTER_NAME    = EARTH
REF_FRAME      = TEME
TIME_SYSTEM    = UTC
MEAN_ELEMENT_THEORY = SGP/SGP4

EPOCH          = 2025-12-01T02:33:59.541696
MEAN_MOTION    = 15.22326778
ECCENTRICITY   = .00132516
INCLINATION    = 82.5470
RA_OF_ASC_NODE = 205.6982
ARG_OF_PERICENTER = 271.2914
MEAN_ANOMALY   = 88.6804

EPHEMERIS_TYPE = 0
CLASSIFICATION_TYPE = U
NORAD_CAT_ID   = 14699
ELEMENT_SET_NO = 999
REV_AT_EPOCH   = 25761
BSTAR          = .28010955E-3
MEAN_MOTION_DOT = .6502E-4
MEAN_MOTION_DDOT = 0

CCSDS_OMM_VERS = 2.0
CREATION_DATE  = 
ORIGINATOR     = 

OBJECT_NAME    = SL-14 R/B
OBJECT_ID      = 1984-027B
CENTER_NAME    = EARTH
REF_FRAME      = TEME
TIME_SYSTEM    = UTC
MEAN_ELEMENT_THEORY = SGP/SGP4

EPOCH          = 2025-12-01T02:34:29.654688
MEAN_MOTION    = 14.85854022
ECCENTRICITY   = .00166244
INCLINATION    = 82.5409
RA_OF_ASC_NODE = 337.4663
ARG_OF_PERICENTER = 302.9276
MEAN_ANOMALY   = 57.0341

EPHEMERIS_TYPE = 0
CLASSIFICATION_TYPE = U
NORAD_CAT_ID   = 14820
ELEMENT_SET_NO = 999
REV_AT_EPOCH   = 23299
BSTAR          = .68483562E-4
MEAN_MOTION_DOT = .621E-5
MEAN_MOTION_DDOT = 0

CCSDS_OMM_VERS = 2.0
CREATION_DATE  = 
ORIGINATOR     = 

OBJECT_NAME    = SL-8 R/B
OBJECT_ID      = 1985-006B
CENTER_NAME    = EARTH
REF_FRAME      = TEME
TIME_SYSTEM    = UTC
MEAN_ELEMENT_THEORY = SGP/SGP4

EPOCH          = 2025-12-01T06:17:45.697344
MEAN_MOTION    = 14.37710069
ECCENTRICITY   = .00181867
INCLINATION    = 74.0462
RA_OF_ASC_NODE = 82.2503
ARG_OF_PERICENTER = 17.6414
MEAN_ANOMALY   = 2.8524

EPHEMERIS_TYPE = 0
CLASSIFICATION_TYPE = U
NORAD_CAT_ID   = 15483
ELEMENT_SET_NO = 999
REV_AT_EPOCH   = 13988
BSTAR          = .12483719E-3
MEAN_MOTION_DOT = .35E-5
MEAN_MOTION_DDOT = 0

CCSDS_OMM_VERS = 2.0
CREATION_DATE  = 
ORIGINATOR     = 

OBJECT_NAME    = SL-12 R/B(2)
OBJECT_ID      = 1985-042D
CENTER_NAME    = EARTH
REF_FRAME      = TEME
TIME_SYSTEM    = UTC
MEAN_ELEMENT_THEORY = SGP/SGP4

EPOCH          = 2025-12-01T05:10:28.125120
MEAN_MOTION    = 14.21945924
ECCENTRICITY   = .00376738
INCLINATION    = 71.1080
RA_OF_ASC_NODE = 295.7658
ARG_OF_PERICENTER = 278.3386
MEAN_ANOMALY   = 176.8240

EPHEMERIS_TYPE = 0
CLASSIFICATION_TYPE = U
NORAD_CAT_ID   = 15772
ELEMENT_SET_NO = 999
REV_AT_EPOCH   = 10039
BSTAR          = .77318232E-4
MEAN_MOTION_DOT = .124E-5
MEAN_MOTION_DDOT = 0

CCSDS_OMM_VERS = 2.0
CREATION_DATE  = 
ORIGINATOR     = 

OBJECT_NAME    = SL-14 R/B
OBJECT_ID      = 1985-069B
CENTER_NAME    = EARTH
REF_FRAME      = TEME
TIME_SYSTEM    = UTC
MEAN_ELEMENT_THEORY = SGP/SGP4

EPOCH          = 2025-12-01T02:55:43.550976
MEAN_MOTION    = 14.86300900
ECCENTRICITY   = .00194142
INCLINATION    = 82.5254
RA_OF_ASC_NODE = 117.6244
ARG_OF_PERICENTER = 155.0300
MEAN_ANOMALY   = 205.1861

EPHEMERIS_TYPE = 0
CLASSIFICATION_TYPE = U
NORAD_CAT_ID   = 15945
ELEMENT_SET_NO = 999
REV_AT_EPOCH   = 15819
BSTAR          = .7514137E-4
MEAN_MOTION_DOT = .688E-5
MEAN_MOTION_DDOT = 0

CCSDS_OMM_VERS = 2.0
CREATION_DATE  = 
ORIGINATOR     = 

OBJECT_NAME    = SL-16 R/B
OBJECT_ID      = 1985-097B
CENTER_NAME    = EARTH
REF_FRAME      = TEME
TIME_SYSTEM    = UTC
MEAN_ELEMENT_THEORY = SGP/SGP4

EPOCH          = 2025-12-01T06:33:06.333408
MEAN_MOTION    = 14.16582082
ECCENTRICITY   = .00059886
INCLINATION    = 71.0035
RA_OF_ASC_NODE = 347.7449
ARG_OF_PERICENTER = 29.3011
MEAN_ANOMALY   = 49.6261

EPHEMERIS_TYPE = 0
CLASSIFICATION_TYPE = U
NORAD_CAT_ID   = 16182
ELEMENT_SET_NO = 999
REV_AT_EPOCH   = 7329
BSTAR          = -.67940283E-4
MEAN_MOTION_DOT = -.183E-5
MEAN_MOTION_DDOT = 0

CCSDS_OMM_VERS = 2.0
CREATION_DATE  = 
ORIGINATOR     = 

OBJECT_NAME    = SL-14 R/B
OBJECT_ID      = 1986-006B
CENTER_NAME    = EARTH
REF_FRAME      = TEME
TIME_SYSTEM    = UTC
MEAN_ELEMENT_THEORY = SGP/SGP4

EPOCH          = 2025-12-01T07:48:03.777408
MEAN_MOTION    = 14.86646867
ECCENTRICITY   = .00754067
INCLINATION    = 82.5269
RA_OF_ASC_NODE = 352.2926
ARG_OF_PERICENTER = 238.1530
MEAN_ANOMALY   = 121.2332

EPHEMERIS_TYPE = 0
CLASSIFICATION_TYPE = U
NORAD_CAT_ID   = 16496
ELEMENT_SET_NO = 999
REV_AT_EPOCH   = 13459
BSTAR          = .90982335E-4
MEAN_MOTION_DOT = .876E-5
MEAN_MOTION_DDOT = 0

CCSDS_OMM_VERS = 2.0
CREATION_DATE  = 
ORIGINATOR     = 

OBJECT_NAME    = COSMOS 1743
OBJECT_ID      = 1986-034A
CENTER_NAME    = EARTH
REF_FRAME      = TEME
TIME_SYSTEM    = UTC
MEAN_ELEMENT_THEORY = SGP/SGP4

EPOCH          = 2025-12-01T07:18:37.459008
MEAN_MOTION    = 15.51278109
ECCENTRICITY   = .00049841
INCLINATION    = 82.5351
RA_OF_ASC_NODE = 176.4612
ARG_OF_PERICENTER = 304.3177
MEAN_ANOMALY   = 55.7602

EPHEMERIS_TYPE = 0
CLASSIFICATION_TYPE = U
NORAD_CAT_ID   = 16719
ELEMENT_SET_NO = 999
REV_AT_EPOCH   = 16496
BSTAR          = .45393604E-3
MEAN_MOTION_DOT = .26702E-3
MEAN_MOTION_DDOT = 0

